<?xml version="1.0" encoding="UTF-8"?>
<gpx version="1.1" creator="SpotHub FPV test fixture" xmlns="http://www.topografix.com/GPX/1/1">
  <metadata><name>Air65 loop, synthetic</name><time>2026-09-14T16:32:13.000Z</time></metadata>
  <trk>
    <name>Air65</name>
    <trkseg>
      <trkpt lat="51.507400" lon="-0.127223"><ele>8.0</ele><time>2026-09-14T16:32:13.000Z</time></trkpt>
      <trkpt lat="51.507405" lon="-0.127223"><ele>8.1</ele><time>2026-09-14T16:32:13.200Z</time></trkpt>
      <trkpt lat="51.507409" lon="-0.127223"><ele>8.2</ele><time>2026-09-14T16:32:13.400Z</time></trkpt>
      <trkpt lat="51.507414" lon="-0.127223"><ele>8.2</ele><time>2026-09-14T16:32:13.600Z</time></trkpt>
      <trkpt lat="51.507418" lon="-0.127223"><ele>8.3</ele><time>2026-09-14T16:32:13.800Z</time></trkpt>
      <trkpt lat="51.507423" lon="-0.127224"><ele>8.4</ele><time>2026-09-14T16:32:14.000Z</time></trkpt>
      <trkpt lat="51.507427" lon="-0.127224"><ele>8.5</ele><time>2026-09-14T16:32:14.200Z</time></trkpt>
      <trkpt lat="51.507432" lon="-0.127225"><ele>8.5</ele><time>2026-09-14T16:32:14.400Z</time></trkpt>
      <trkpt lat="51.507436" lon="-0.127226"><ele>8.6</ele><time>2026-09-14T16:32:14.600Z</time></trkpt>
      <trkpt lat="51.507441" lon="-0.127226"><ele>8.7</ele><time>2026-09-14T16:32:14.800Z</time></trkpt>
      <trkpt lat="51.507445" lon="-0.127227"><ele>8.7</ele><time>2026-09-14T16:32:15.000Z</time></trkpt>
      <trkpt lat="51.507450" lon="-0.127228"><ele>8.8</ele><time>2026-09-14T16:32:15.200Z</time></trkpt>
      <trkpt lat="51.507454" lon="-0.127229"><ele>8.9</ele><time>2026-09-14T16:32:15.400Z</time></trkpt>
      <trkpt lat="51.507458" lon="-0.127230"><ele>9.0</ele><time>2026-09-14T16:32:15.600Z</time></trkpt>
      <trkpt lat="51.507463" lon="-0.127232"><ele>9.0</ele><time>2026-09-14T16:32:15.800Z</time></trkpt>
      <trkpt lat="51.507467" lon="-0.127233"><ele>9.1</ele><time>2026-09-14T16:32:16.000Z</time></trkpt>
      <trkpt lat="51.507472" lon="-0.127234"><ele>9.2</ele><time>2026-09-14T16:32:16.200Z</time></trkpt>
      <trkpt lat="51.507476" lon="-0.127236"><ele>9.2</ele><time>2026-09-14T16:32:16.400Z</time></trkpt>
      <trkpt lat="51.507481" lon="-0.127237"><ele>9.3</ele><time>2026-09-14T16:32:16.600Z</time></trkpt>
      <trkpt lat="51.507485" lon="-0.127239"><ele>9.4</ele><time>2026-09-14T16:32:16.800Z</time></trkpt>
      <trkpt lat="51.507489" lon="-0.127241"><ele>9.4</ele><time>2026-09-14T16:32:17.000Z</time></trkpt>
      <trkpt lat="51.507494" lon="-0.127243"><ele>9.5</ele><time>2026-09-14T16:32:17.200Z</time></trkpt>
      <trkpt lat="51.507498" lon="-0.127245"><ele>9.6</ele><time>2026-09-14T16:32:17.400Z</time></trkpt>
      <trkpt lat="51.507502" lon="-0.127247"><ele>9.6</ele><time>2026-09-14T16:32:17.600Z</time></trkpt>
      <trkpt lat="51.507507" lon="-0.127249"><ele>9.7</ele><time>2026-09-14T16:32:17.800Z</time></trkpt>
      <trkpt lat="51.507511" lon="-0.127251"><ele>9.8</ele><time>2026-09-14T16:32:18.000Z</time></trkpt>
      <trkpt lat="51.507515" lon="-0.127253"><ele>9.8</ele><time>2026-09-14T16:32:18.200Z</time></trkpt>
      <trkpt lat="51.507520" lon="-0.127256"><ele>9.9</ele><time>2026-09-14T16:32:18.400Z</time></trkpt>
      <trkpt lat="51.507524" lon="-0.127258"><ele>9.9</ele><time>2026-09-14T16:32:18.600Z</time></trkpt>
      <trkpt lat="51.507528" lon="-0.127261"><ele>10.0</ele><time>2026-09-14T16:32:18.800Z</time></trkpt>
      <trkpt lat="51.507532" lon="-0.127263"><ele>10.1</ele><time>2026-09-14T16:32:19.000Z</time></trkpt>
      <trkpt lat="51.507536" lon="-0.127266"><ele>10.1</ele><time>2026-09-14T16:32:19.200Z</time></trkpt>
      <trkpt lat="51.507541" lon="-0.127269"><ele>10.2</ele><time>2026-09-14T16:32:19.400Z</time></trkpt>
      <trkpt lat="51.507545" lon="-0.127272"><ele>10.2</ele><time>2026-09-14T16:32:19.600Z</time></trkpt>
      <trkpt lat="51.507549" lon="-0.127275"><ele>10.3</ele><time>2026-09-14T16:32:19.800Z</time></trkpt>
      <trkpt lat="51.507553" lon="-0.127278"><ele>10.3</ele><time>2026-09-14T16:32:20.000Z</time></trkpt>
      <trkpt lat="51.507557" lon="-0.127281"><ele>10.4</ele><time>2026-09-14T16:32:20.200Z</time></trkpt>
      <trkpt lat="51.507561" lon="-0.127284"><ele>10.4</ele><time>2026-09-14T16:32:20.400Z</time></trkpt>
      <trkpt lat="51.507565" lon="-0.127287"><ele>10.4</ele><time>2026-09-14T16:32:20.600Z</time></trkpt>
      <trkpt lat="51.507569" lon="-0.127291"><ele>10.5</ele><time>2026-09-14T16:32:20.800Z</time></trkpt>
      <trkpt lat="51.507573" lon="-0.127294"><ele>10.5</ele><time>2026-09-14T16:32:21.000Z</time></trkpt>
      <trkpt lat="51.507577" lon="-0.127298"><ele>10.6</ele><time>2026-09-14T16:32:21.200Z</time></trkpt>
      <trkpt lat="51.507581" lon="-0.127301"><ele>10.6</ele><time>2026-09-14T16:32:21.400Z</time></trkpt>
      <trkpt lat="51.507585" lon="-0.127305"><ele>10.6</ele><time>2026-09-14T16:32:21.600Z</time></trkpt>
      <trkpt lat="51.507589" lon="-0.127309"><ele>10.7</ele><time>2026-09-14T16:32:21.800Z</time></trkpt>
      <trkpt lat="51.507593" lon="-0.127313"><ele>10.7</ele><time>2026-09-14T16:32:22.000Z</time></trkpt>
      <trkpt lat="51.507596" lon="-0.127316"><ele>10.7</ele><time>2026-09-14T16:32:22.200Z</time></trkpt>
      <trkpt lat="51.507600" lon="-0.127320"><ele>10.8</ele><time>2026-09-14T16:32:22.400Z</time></trkpt>
      <trkpt lat="51.507604" lon="-0.127325"><ele>10.8</ele><time>2026-09-14T16:32:22.600Z</time></trkpt>
      <trkpt lat="51.507608" lon="-0.127329"><ele>10.8</ele><time>2026-09-14T16:32:22.800Z</time></trkpt>
      <trkpt lat="51.507611" lon="-0.127333"><ele>10.9</ele><time>2026-09-14T16:32:23.000Z</time></trkpt>
      <trkpt lat="51.507615" lon="-0.127337"><ele>10.9</ele><time>2026-09-14T16:32:23.200Z</time></trkpt>
      <trkpt lat="51.507618" lon="-0.127342"><ele>10.9</ele><time>2026-09-14T16:32:23.400Z</time></trkpt>
      <trkpt lat="51.507622" lon="-0.127346"><ele>10.9</ele><time>2026-09-14T16:32:23.600Z</time></trkpt>
      <trkpt lat="51.507626" lon="-0.127351"><ele>10.9</ele><time>2026-09-14T16:32:23.800Z</time></trkpt>
      <trkpt lat="51.507629" lon="-0.127355"><ele>10.9</ele><time>2026-09-14T16:32:24.000Z</time></trkpt>
      <trkpt lat="51.507633" lon="-0.127360"><ele>11.0</ele><time>2026-09-14T16:32:24.200Z</time></trkpt>
      <trkpt lat="51.507636" lon="-0.127365"><ele>11.0</ele><time>2026-09-14T16:32:24.400Z</time></trkpt>
      <trkpt lat="51.507639" lon="-0.127369"><ele>11.0</ele><time>2026-09-14T16:32:24.600Z</time></trkpt>
      <trkpt lat="51.507643" lon="-0.127374"><ele>11.0</ele><time>2026-09-14T16:32:24.800Z</time></trkpt>
      <trkpt lat="51.507646" lon="-0.127379"><ele>11.0</ele><time>2026-09-14T16:32:25.000Z</time></trkpt>
      <trkpt lat="51.507649" lon="-0.127384"><ele>11.0</ele><time>2026-09-14T16:32:25.200Z</time></trkpt>
      <trkpt lat="51.507652" lon="-0.127389"><ele>11.0</ele><time>2026-09-14T16:32:25.400Z</time></trkpt>
      <trkpt lat="51.507656" lon="-0.127394"><ele>11.0</ele><time>2026-09-14T16:32:25.600Z</time></trkpt>
      <trkpt lat="51.507659" lon="-0.127400"><ele>11.0</ele><time>2026-09-14T16:32:25.800Z</time></trkpt>
      <trkpt lat="51.507662" lon="-0.127405"><ele>11.0</ele><time>2026-09-14T16:32:26.000Z</time></trkpt>
      <trkpt lat="51.507665" lon="-0.127410"><ele>11.0</ele><time>2026-09-14T16:32:26.200Z</time></trkpt>
      <trkpt lat="51.507668" lon="-0.127416"><ele>11.0</ele><time>2026-09-14T16:32:26.400Z</time></trkpt>
      <trkpt lat="51.507671" lon="-0.127421"><ele>11.0</ele><time>2026-09-14T16:32:26.600Z</time></trkpt>
      <trkpt lat="51.507674" lon="-0.127426"><ele>11.0</ele><time>2026-09-14T16:32:26.800Z</time></trkpt>
      <trkpt lat="51.507677" lon="-0.127432"><ele>10.9</ele><time>2026-09-14T16:32:27.000Z</time></trkpt>
      <trkpt lat="51.507680" lon="-0.127438"><ele>10.9</ele><time>2026-09-14T16:32:27.200Z</time></trkpt>
      <trkpt lat="51.507683" lon="-0.127443"><ele>10.9</ele><time>2026-09-14T16:32:27.400Z</time></trkpt>
      <trkpt lat="51.507685" lon="-0.127449"><ele>10.9</ele><time>2026-09-14T16:32:27.600Z</time></trkpt>
      <trkpt lat="51.507688" lon="-0.127455"><ele>10.9</ele><time>2026-09-14T16:32:27.800Z</time></trkpt>
      <trkpt lat="51.507691" lon="-0.127461"><ele>10.9</ele><time>2026-09-14T16:32:28.000Z</time></trkpt>
      <trkpt lat="51.507693" lon="-0.127467"><ele>10.8</ele><time>2026-09-14T16:32:28.200Z</time></trkpt>
      <trkpt lat="51.507696" lon="-0.127473"><ele>10.8</ele><time>2026-09-14T16:32:28.400Z</time></trkpt>
      <trkpt lat="51.507698" lon="-0.127479"><ele>10.8</ele><time>2026-09-14T16:32:28.600Z</time></trkpt>
      <trkpt lat="51.507701" lon="-0.127485"><ele>10.7</ele><time>2026-09-14T16:32:28.800Z</time></trkpt>
      <trkpt lat="51.507703" lon="-0.127491"><ele>10.7</ele><time>2026-09-14T16:32:29.000Z</time></trkpt>
      <trkpt lat="51.507706" lon="-0.127497"><ele>10.7</ele><time>2026-09-14T16:32:29.200Z</time></trkpt>
      <trkpt lat="51.507708" lon="-0.127503"><ele>10.6</ele><time>2026-09-14T16:32:29.400Z</time></trkpt>
      <trkpt lat="51.507710" lon="-0.127509"><ele>10.6</ele><time>2026-09-14T16:32:29.600Z</time></trkpt>
      <trkpt lat="51.507713" lon="-0.127516"><ele>10.6</ele><time>2026-09-14T16:32:29.800Z</time></trkpt>
      <trkpt lat="51.507715" lon="-0.127522"><ele>10.5</ele><time>2026-09-14T16:32:30.000Z</time></trkpt>
      <trkpt lat="51.507717" lon="-0.127528"><ele>10.5</ele><time>2026-09-14T16:32:30.200Z</time></trkpt>
      <trkpt lat="51.507719" lon="-0.127535"><ele>10.4</ele><time>2026-09-14T16:32:30.400Z</time></trkpt>
      <trkpt lat="51.507721" lon="-0.127541"><ele>10.4</ele><time>2026-09-14T16:32:30.600Z</time></trkpt>
      <trkpt lat="51.507723" lon="-0.127548"><ele>10.4</ele><time>2026-09-14T16:32:30.800Z</time></trkpt>
      <trkpt lat="51.507725" lon="-0.127554"><ele>10.3</ele><time>2026-09-14T16:32:31.000Z</time></trkpt>
      <trkpt lat="51.507727" lon="-0.127561"><ele>10.3</ele><time>2026-09-14T16:32:31.200Z</time></trkpt>
      <trkpt lat="51.507729" lon="-0.127567"><ele>10.2</ele><time>2026-09-14T16:32:31.400Z</time></trkpt>
      <trkpt lat="51.507731" lon="-0.127574"><ele>10.2</ele><time>2026-09-14T16:32:31.600Z</time></trkpt>
      <trkpt lat="51.507732" lon="-0.127581"><ele>10.1</ele><time>2026-09-14T16:32:31.800Z</time></trkpt>
      <trkpt lat="51.507734" lon="-0.127587"><ele>10.1</ele><time>2026-09-14T16:32:32.000Z</time></trkpt>
      <trkpt lat="51.507736" lon="-0.127594"><ele>10.0</ele><time>2026-09-14T16:32:32.200Z</time></trkpt>
      <trkpt lat="51.507737" lon="-0.127601"><ele>9.9</ele><time>2026-09-14T16:32:32.400Z</time></trkpt>
      <trkpt lat="51.507739" lon="-0.127608"><ele>9.9</ele><time>2026-09-14T16:32:32.600Z</time></trkpt>
      <trkpt lat="51.507740" lon="-0.127615"><ele>9.8</ele><time>2026-09-14T16:32:32.800Z</time></trkpt>
      <trkpt lat="51.507742" lon="-0.127622"><ele>9.8</ele><time>2026-09-14T16:32:33.000Z</time></trkpt>
      <trkpt lat="51.507743" lon="-0.127629"><ele>9.7</ele><time>2026-09-14T16:32:33.200Z</time></trkpt>
      <trkpt lat="51.507744" lon="-0.127635"><ele>9.6</ele><time>2026-09-14T16:32:33.400Z</time></trkpt>
      <trkpt lat="51.507746" lon="-0.127642"><ele>9.6</ele><time>2026-09-14T16:32:33.600Z</time></trkpt>
      <trkpt lat="51.507747" lon="-0.127649"><ele>9.5</ele><time>2026-09-14T16:32:33.800Z</time></trkpt>
      <trkpt lat="51.507748" lon="-0.127656"><ele>9.4</ele><time>2026-09-14T16:32:34.000Z</time></trkpt>
      <trkpt lat="51.507749" lon="-0.127663"><ele>9.4</ele><time>2026-09-14T16:32:34.200Z</time></trkpt>
      <trkpt lat="51.507750" lon="-0.127671"><ele>9.3</ele><time>2026-09-14T16:32:34.400Z</time></trkpt>
      <trkpt lat="51.507751" lon="-0.127678"><ele>9.2</ele><time>2026-09-14T16:32:34.600Z</time></trkpt>
      <trkpt lat="51.507752" lon="-0.127685"><ele>9.2</ele><time>2026-09-14T16:32:34.800Z</time></trkpt>
      <trkpt lat="51.507753" lon="-0.127692"><ele>9.1</ele><time>2026-09-14T16:32:35.000Z</time></trkpt>
      <trkpt lat="51.507754" lon="-0.127699"><ele>9.0</ele><time>2026-09-14T16:32:35.200Z</time></trkpt>
      <trkpt lat="51.507755" lon="-0.127706"><ele>9.0</ele><time>2026-09-14T16:32:35.400Z</time></trkpt>
      <trkpt lat="51.507755" lon="-0.127713"><ele>8.9</ele><time>2026-09-14T16:32:35.600Z</time></trkpt>
      <trkpt lat="51.507756" lon="-0.127720"><ele>8.8</ele><time>2026-09-14T16:32:35.800Z</time></trkpt>
      <trkpt lat="51.507756" lon="-0.127728"><ele>8.7</ele><time>2026-09-14T16:32:36.000Z</time></trkpt>
      <trkpt lat="51.507757" lon="-0.127735"><ele>8.7</ele><time>2026-09-14T16:32:36.200Z</time></trkpt>
      <trkpt lat="51.507758" lon="-0.127742"><ele>8.6</ele><time>2026-09-14T16:32:36.400Z</time></trkpt>
      <trkpt lat="51.507758" lon="-0.127749"><ele>8.5</ele><time>2026-09-14T16:32:36.600Z</time></trkpt>
      <trkpt lat="51.507758" lon="-0.127757"><ele>8.5</ele><time>2026-09-14T16:32:36.800Z</time></trkpt>
      <trkpt lat="51.507759" lon="-0.127764"><ele>8.4</ele><time>2026-09-14T16:32:37.000Z</time></trkpt>
      <trkpt lat="51.507759" lon="-0.127771"><ele>8.3</ele><time>2026-09-14T16:32:37.200Z</time></trkpt>
      <trkpt lat="51.507759" lon="-0.127778"><ele>8.2</ele><time>2026-09-14T16:32:37.400Z</time></trkpt>
      <trkpt lat="51.507759" lon="-0.127785"><ele>8.2</ele><time>2026-09-14T16:32:37.600Z</time></trkpt>
      <trkpt lat="51.507759" lon="-0.127793"><ele>8.1</ele><time>2026-09-14T16:32:37.800Z</time></trkpt>
      <trkpt lat="51.507759" lon="-0.127800"><ele>8.0</ele><time>2026-09-14T16:32:38.000Z</time></trkpt>
      <trkpt lat="51.507759" lon="-0.127807"><ele>7.9</ele><time>2026-09-14T16:32:38.200Z</time></trkpt>
      <trkpt lat="51.507759" lon="-0.127815"><ele>7.8</ele><time>2026-09-14T16:32:38.400Z</time></trkpt>
      <trkpt lat="51.507759" lon="-0.127822"><ele>7.8</ele><time>2026-09-14T16:32:38.600Z</time></trkpt>
      <trkpt lat="51.507759" lon="-0.127829"><ele>7.7</ele><time>2026-09-14T16:32:38.800Z</time></trkpt>
      <trkpt lat="51.507759" lon="-0.127836"><ele>7.6</ele><time>2026-09-14T16:32:39.000Z</time></trkpt>
      <trkpt lat="51.507758" lon="-0.127843"><ele>7.5</ele><time>2026-09-14T16:32:39.200Z</time></trkpt>
      <trkpt lat="51.507758" lon="-0.127851"><ele>7.5</ele><time>2026-09-14T16:32:39.400Z</time></trkpt>
      <trkpt lat="51.507758" lon="-0.127858"><ele>7.4</ele><time>2026-09-14T16:32:39.600Z</time></trkpt>
      <trkpt lat="51.507757" lon="-0.127865"><ele>7.3</ele><time>2026-09-14T16:32:39.800Z</time></trkpt>
      <trkpt lat="51.507756" lon="-0.127872"><ele>7.3</ele><time>2026-09-14T16:32:40.000Z</time></trkpt>
      <trkpt lat="51.507756" lon="-0.127880"><ele>7.2</ele><time>2026-09-14T16:32:40.200Z</time></trkpt>
      <trkpt lat="51.507755" lon="-0.127887"><ele>7.1</ele><time>2026-09-14T16:32:40.400Z</time></trkpt>
      <trkpt lat="51.507755" lon="-0.127894"><ele>7.0</ele><time>2026-09-14T16:32:40.600Z</time></trkpt>
      <trkpt lat="51.507754" lon="-0.127901"><ele>7.0</ele><time>2026-09-14T16:32:40.800Z</time></trkpt>
      <trkpt lat="51.507753" lon="-0.127908"><ele>6.9</ele><time>2026-09-14T16:32:41.000Z</time></trkpt>
      <trkpt lat="51.507752" lon="-0.127915"><ele>6.8</ele><time>2026-09-14T16:32:41.200Z</time></trkpt>
      <trkpt lat="51.507751" lon="-0.127922"><ele>6.8</ele><time>2026-09-14T16:32:41.400Z</time></trkpt>
      <trkpt lat="51.507750" lon="-0.127929"><ele>6.7</ele><time>2026-09-14T16:32:41.600Z</time></trkpt>
      <trkpt lat="51.507749" lon="-0.127937"><ele>6.6</ele><time>2026-09-14T16:32:41.800Z</time></trkpt>
      <trkpt lat="51.507748" lon="-0.127944"><ele>6.6</ele><time>2026-09-14T16:32:42.000Z</time></trkpt>
      <trkpt lat="51.507747" lon="-0.127951"><ele>6.5</ele><time>2026-09-14T16:32:42.200Z</time></trkpt>
      <trkpt lat="51.507746" lon="-0.127958"><ele>6.4</ele><time>2026-09-14T16:32:42.400Z</time></trkpt>
      <trkpt lat="51.507744" lon="-0.127965"><ele>6.4</ele><time>2026-09-14T16:32:42.600Z</time></trkpt>
      <trkpt lat="51.507743" lon="-0.127971"><ele>6.3</ele><time>2026-09-14T16:32:42.800Z</time></trkpt>
      <trkpt lat="51.507742" lon="-0.127978"><ele>6.2</ele><time>2026-09-14T16:32:43.000Z</time></trkpt>
      <trkpt lat="51.507740" lon="-0.127985"><ele>6.2</ele><time>2026-09-14T16:32:43.200Z</time></trkpt>
      <trkpt lat="51.507739" lon="-0.127992"><ele>6.1</ele><time>2026-09-14T16:32:43.400Z</time></trkpt>
      <trkpt lat="51.507737" lon="-0.127999"><ele>6.1</ele><time>2026-09-14T16:32:43.600Z</time></trkpt>
      <trkpt lat="51.507736" lon="-0.128006"><ele>6.0</ele><time>2026-09-14T16:32:43.800Z</time></trkpt>
      <trkpt lat="51.507734" lon="-0.128013"><ele>5.9</ele><time>2026-09-14T16:32:44.000Z</time></trkpt>
      <trkpt lat="51.507732" lon="-0.128019"><ele>5.9</ele><time>2026-09-14T16:32:44.200Z</time></trkpt>
      <trkpt lat="51.507731" lon="-0.128026"><ele>5.8</ele><time>2026-09-14T16:32:44.400Z</time></trkpt>
      <trkpt lat="51.507729" lon="-0.128033"><ele>5.8</ele><time>2026-09-14T16:32:44.600Z</time></trkpt>
      <trkpt lat="51.507727" lon="-0.128039"><ele>5.7</ele><time>2026-09-14T16:32:44.800Z</time></trkpt>
      <trkpt lat="51.507725" lon="-0.128046"><ele>5.7</ele><time>2026-09-14T16:32:45.000Z</time></trkpt>
      <trkpt lat="51.507723" lon="-0.128052"><ele>5.6</ele><time>2026-09-14T16:32:45.200Z</time></trkpt>
      <trkpt lat="51.507721" lon="-0.128059"><ele>5.6</ele><time>2026-09-14T16:32:45.400Z</time></trkpt>
      <trkpt lat="51.507719" lon="-0.128065"><ele>5.6</ele><time>2026-09-14T16:32:45.600Z</time></trkpt>
      <trkpt lat="51.507717" lon="-0.128072"><ele>5.5</ele><time>2026-09-14T16:32:45.800Z</time></trkpt>
      <trkpt lat="51.507715" lon="-0.128078"><ele>5.5</ele><time>2026-09-14T16:32:46.000Z</time></trkpt>
      <trkpt lat="51.507713" lon="-0.128084"><ele>5.4</ele><time>2026-09-14T16:32:46.200Z</time></trkpt>
      <trkpt lat="51.507710" lon="-0.128091"><ele>5.4</ele><time>2026-09-14T16:32:46.400Z</time></trkpt>
      <trkpt lat="51.507708" lon="-0.128097"><ele>5.4</ele><time>2026-09-14T16:32:46.600Z</time></trkpt>
      <trkpt lat="51.507706" lon="-0.128103"><ele>5.3</ele><time>2026-09-14T16:32:46.800Z</time></trkpt>
      <trkpt lat="51.507703" lon="-0.128109"><ele>5.3</ele><time>2026-09-14T16:32:47.000Z</time></trkpt>
      <trkpt lat="51.507701" lon="-0.128115"><ele>5.3</ele><time>2026-09-14T16:32:47.200Z</time></trkpt>
      <trkpt lat="51.507698" lon="-0.128121"><ele>5.2</ele><time>2026-09-14T16:32:47.400Z</time></trkpt>
      <trkpt lat="51.507696" lon="-0.128127"><ele>5.2</ele><time>2026-09-14T16:32:47.600Z</time></trkpt>
      <trkpt lat="51.507693" lon="-0.128133"><ele>5.2</ele><time>2026-09-14T16:32:47.800Z</time></trkpt>
      <trkpt lat="51.507691" lon="-0.128139"><ele>5.1</ele><time>2026-09-14T16:32:48.000Z</time></trkpt>
      <trkpt lat="51.507688" lon="-0.128145"><ele>5.1</ele><time>2026-09-14T16:32:48.200Z</time></trkpt>
      <trkpt lat="51.507685" lon="-0.128151"><ele>5.1</ele><time>2026-09-14T16:32:48.400Z</time></trkpt>
      <trkpt lat="51.507683" lon="-0.128157"><ele>5.1</ele><time>2026-09-14T16:32:48.600Z</time></trkpt>
      <trkpt lat="51.507680" lon="-0.128162"><ele>5.1</ele><time>2026-09-14T16:32:48.800Z</time></trkpt>
      <trkpt lat="51.507677" lon="-0.128168"><ele>5.1</ele><time>2026-09-14T16:32:49.000Z</time></trkpt>
      <trkpt lat="51.507674" lon="-0.128174"><ele>5.0</ele><time>2026-09-14T16:32:49.200Z</time></trkpt>
      <trkpt lat="51.507671" lon="-0.128179"><ele>5.0</ele><time>2026-09-14T16:32:49.400Z</time></trkpt>
      <trkpt lat="51.507668" lon="-0.128184"><ele>5.0</ele><time>2026-09-14T16:32:49.600Z</time></trkpt>
      <trkpt lat="51.507665" lon="-0.128190"><ele>5.0</ele><time>2026-09-14T16:32:49.800Z</time></trkpt>
      <trkpt lat="51.507662" lon="-0.128195"><ele>5.0</ele><time>2026-09-14T16:32:50.000Z</time></trkpt>
      <trkpt lat="51.507659" lon="-0.128200"><ele>5.0</ele><time>2026-09-14T16:32:50.200Z</time></trkpt>
      <trkpt lat="51.507656" lon="-0.128206"><ele>5.0</ele><time>2026-09-14T16:32:50.400Z</time></trkpt>
      <trkpt lat="51.507652" lon="-0.128211"><ele>5.0</ele><time>2026-09-14T16:32:50.600Z</time></trkpt>
      <trkpt lat="51.507649" lon="-0.128216"><ele>5.0</ele><time>2026-09-14T16:32:50.800Z</time></trkpt>
      <trkpt lat="51.507646" lon="-0.128221"><ele>5.0</ele><time>2026-09-14T16:32:51.000Z</time></trkpt>
      <trkpt lat="51.507643" lon="-0.128226"><ele>5.0</ele><time>2026-09-14T16:32:51.200Z</time></trkpt>
      <trkpt lat="51.507639" lon="-0.128231"><ele>5.0</ele><time>2026-09-14T16:32:51.400Z</time></trkpt>
      <trkpt lat="51.507636" lon="-0.128235"><ele>5.0</ele><time>2026-09-14T16:32:51.600Z</time></trkpt>
      <trkpt lat="51.507633" lon="-0.128240"><ele>5.0</ele><time>2026-09-14T16:32:51.800Z</time></trkpt>
      <trkpt lat="51.507629" lon="-0.128245"><ele>5.1</ele><time>2026-09-14T16:32:52.000Z</time></trkpt>
      <trkpt lat="51.507626" lon="-0.128249"><ele>5.1</ele><time>2026-09-14T16:32:52.200Z</time></trkpt>
      <trkpt lat="51.507622" lon="-0.128254"><ele>5.1</ele><time>2026-09-14T16:32:52.400Z</time></trkpt>
      <trkpt lat="51.507618" lon="-0.128258"><ele>5.1</ele><time>2026-09-14T16:32:52.600Z</time></trkpt>
      <trkpt lat="51.507615" lon="-0.128263"><ele>5.1</ele><time>2026-09-14T16:32:52.800Z</time></trkpt>
      <trkpt lat="51.507611" lon="-0.128267"><ele>5.1</ele><time>2026-09-14T16:32:53.000Z</time></trkpt>
      <trkpt lat="51.507608" lon="-0.128271"><ele>5.2</ele><time>2026-09-14T16:32:53.200Z</time></trkpt>
      <trkpt lat="51.507604" lon="-0.128275"><ele>5.2</ele><time>2026-09-14T16:32:53.400Z</time></trkpt>
      <trkpt lat="51.507600" lon="-0.128280"><ele>5.2</ele><time>2026-09-14T16:32:53.600Z</time></trkpt>
      <trkpt lat="51.507596" lon="-0.128284"><ele>5.3</ele><time>2026-09-14T16:32:53.800Z</time></trkpt>
      <trkpt lat="51.507593" lon="-0.128287"><ele>5.3</ele><time>2026-09-14T16:32:54.000Z</time></trkpt>
      <trkpt lat="51.507589" lon="-0.128291"><ele>5.3</ele><time>2026-09-14T16:32:54.200Z</time></trkpt>
      <trkpt lat="51.507585" lon="-0.128295"><ele>5.4</ele><time>2026-09-14T16:32:54.400Z</time></trkpt>
      <trkpt lat="51.507581" lon="-0.128299"><ele>5.4</ele><time>2026-09-14T16:32:54.600Z</time></trkpt>
      <trkpt lat="51.507577" lon="-0.128302"><ele>5.4</ele><time>2026-09-14T16:32:54.800Z</time></trkpt>
      <trkpt lat="51.507573" lon="-0.128306"><ele>5.5</ele><time>2026-09-14T16:32:55.000Z</time></trkpt>
      <trkpt lat="51.507569" lon="-0.128309"><ele>5.5</ele><time>2026-09-14T16:32:55.200Z</time></trkpt>
      <trkpt lat="51.507565" lon="-0.128313"><ele>5.6</ele><time>2026-09-14T16:32:55.400Z</time></trkpt>
      <trkpt lat="51.507561" lon="-0.128316"><ele>5.6</ele><time>2026-09-14T16:32:55.600Z</time></trkpt>
      <trkpt lat="51.507557" lon="-0.128319"><ele>5.6</ele><time>2026-09-14T16:32:55.800Z</time></trkpt>
      <trkpt lat="51.507553" lon="-0.128322"><ele>5.7</ele><time>2026-09-14T16:32:56.000Z</time></trkpt>
      <trkpt lat="51.507549" lon="-0.128325"><ele>5.7</ele><time>2026-09-14T16:32:56.200Z</time></trkpt>
      <trkpt lat="51.507545" lon="-0.128328"><ele>5.8</ele><time>2026-09-14T16:32:56.400Z</time></trkpt>
      <trkpt lat="51.507541" lon="-0.128331"><ele>5.8</ele><time>2026-09-14T16:32:56.600Z</time></trkpt>
      <trkpt lat="51.507536" lon="-0.128334"><ele>5.9</ele><time>2026-09-14T16:32:56.800Z</time></trkpt>
      <trkpt lat="51.507532" lon="-0.128337"><ele>5.9</ele><time>2026-09-14T16:32:57.000Z</time></trkpt>
      <trkpt lat="51.507528" lon="-0.128339"><ele>6.0</ele><time>2026-09-14T16:32:57.200Z</time></trkpt>
      <trkpt lat="51.507524" lon="-0.128342"><ele>6.1</ele><time>2026-09-14T16:32:57.400Z</time></trkpt>
      <trkpt lat="51.507520" lon="-0.128344"><ele>6.1</ele><time>2026-09-14T16:32:57.600Z</time></trkpt>
      <trkpt lat="51.507515" lon="-0.128347"><ele>6.2</ele><time>2026-09-14T16:32:57.800Z</time></trkpt>
      <trkpt lat="51.507511" lon="-0.128349"><ele>6.2</ele><time>2026-09-14T16:32:58.000Z</time></trkpt>
      <trkpt lat="51.507507" lon="-0.128351"><ele>6.3</ele><time>2026-09-14T16:32:58.200Z</time></trkpt>
      <trkpt lat="51.507502" lon="-0.128353"><ele>6.4</ele><time>2026-09-14T16:32:58.400Z</time></trkpt>
      <trkpt lat="51.507498" lon="-0.128355"><ele>6.4</ele><time>2026-09-14T16:32:58.600Z</time></trkpt>
      <trkpt lat="51.507494" lon="-0.128357"><ele>6.5</ele><time>2026-09-14T16:32:58.800Z</time></trkpt>
      <trkpt lat="51.507489" lon="-0.128359"><ele>6.6</ele><time>2026-09-14T16:32:59.000Z</time></trkpt>
      <trkpt lat="51.507485" lon="-0.128361"><ele>6.6</ele><time>2026-09-14T16:32:59.200Z</time></trkpt>
      <trkpt lat="51.507481" lon="-0.128363"><ele>6.7</ele><time>2026-09-14T16:32:59.400Z</time></trkpt>
      <trkpt lat="51.507476" lon="-0.128364"><ele>6.8</ele><time>2026-09-14T16:32:59.600Z</time></trkpt>
      <trkpt lat="51.507472" lon="-0.128366"><ele>6.8</ele><time>2026-09-14T16:32:59.800Z</time></trkpt>
      <trkpt lat="51.507467" lon="-0.128367"><ele>6.9</ele><time>2026-09-14T16:33:00.000Z</time></trkpt>
      <trkpt lat="51.507463" lon="-0.128368"><ele>7.0</ele><time>2026-09-14T16:33:00.200Z</time></trkpt>
      <trkpt lat="51.507458" lon="-0.128370"><ele>7.0</ele><time>2026-09-14T16:33:00.400Z</time></trkpt>
      <trkpt lat="51.507454" lon="-0.128371"><ele>7.1</ele><time>2026-09-14T16:33:00.600Z</time></trkpt>
      <trkpt lat="51.507450" lon="-0.128372"><ele>7.2</ele><time>2026-09-14T16:33:00.800Z</time></trkpt>
      <trkpt lat="51.507445" lon="-0.128373"><ele>7.3</ele><time>2026-09-14T16:33:01.000Z</time></trkpt>
      <trkpt lat="51.507441" lon="-0.128374"><ele>7.3</ele><time>2026-09-14T16:33:01.200Z</time></trkpt>
      <trkpt lat="51.507436" lon="-0.128374"><ele>7.4</ele><time>2026-09-14T16:33:01.400Z</time></trkpt>
      <trkpt lat="51.507432" lon="-0.128375"><ele>7.5</ele><time>2026-09-14T16:33:01.600Z</time></trkpt>
      <trkpt lat="51.507427" lon="-0.128376"><ele>7.5</ele><time>2026-09-14T16:33:01.800Z</time></trkpt>
      <trkpt lat="51.507423" lon="-0.128376"><ele>7.6</ele><time>2026-09-14T16:33:02.000Z</time></trkpt>
      <trkpt lat="51.507418" lon="-0.128377"><ele>7.7</ele><time>2026-09-14T16:33:02.200Z</time></trkpt>
      <trkpt lat="51.507414" lon="-0.128377"><ele>7.8</ele><time>2026-09-14T16:33:02.400Z</time></trkpt>
      <trkpt lat="51.507409" lon="-0.128377"><ele>7.8</ele><time>2026-09-14T16:33:02.600Z</time></trkpt>
      <trkpt lat="51.507405" lon="-0.128377"><ele>7.9</ele><time>2026-09-14T16:33:02.800Z</time></trkpt>
      <trkpt lat="51.507400" lon="-0.128377"><ele>8.0</ele><time>2026-09-14T16:33:03.000Z</time></trkpt>
      <trkpt lat="51.507395" lon="-0.128377"><ele>8.1</ele><time>2026-09-14T16:33:03.200Z</time></trkpt>
      <trkpt lat="51.507391" lon="-0.128377"><ele>8.2</ele><time>2026-09-14T16:33:03.400Z</time></trkpt>
      <trkpt lat="51.507386" lon="-0.128377"><ele>8.2</ele><time>2026-09-14T16:33:03.600Z</time></trkpt>
      <trkpt lat="51.507382" lon="-0.128377"><ele>8.3</ele><time>2026-09-14T16:33:03.800Z</time></trkpt>
      <trkpt lat="51.507377" lon="-0.128376"><ele>8.4</ele><time>2026-09-14T16:33:04.000Z</time></trkpt>
      <trkpt lat="51.507373" lon="-0.128376"><ele>8.5</ele><time>2026-09-14T16:33:04.200Z</time></trkpt>
      <trkpt lat="51.507368" lon="-0.128375"><ele>8.5</ele><time>2026-09-14T16:33:04.400Z</time></trkpt>
      <trkpt lat="51.507364" lon="-0.128374"><ele>8.6</ele><time>2026-09-14T16:33:04.600Z</time></trkpt>
      <trkpt lat="51.507359" lon="-0.128374"><ele>8.7</ele><time>2026-09-14T16:33:04.800Z</time></trkpt>
      <trkpt lat="51.507355" lon="-0.128373"><ele>8.7</ele><time>2026-09-14T16:33:05.000Z</time></trkpt>
      <trkpt lat="51.507350" lon="-0.128372"><ele>8.8</ele><time>2026-09-14T16:33:05.200Z</time></trkpt>
      <trkpt lat="51.507346" lon="-0.128371"><ele>8.9</ele><time>2026-09-14T16:33:05.400Z</time></trkpt>
      <trkpt lat="51.507342" lon="-0.128370"><ele>9.0</ele><time>2026-09-14T16:33:05.600Z</time></trkpt>
      <trkpt lat="51.507337" lon="-0.128368"><ele>9.0</ele><time>2026-09-14T16:33:05.800Z</time></trkpt>
      <trkpt lat="51.507333" lon="-0.128367"><ele>9.1</ele><time>2026-09-14T16:33:06.000Z</time></trkpt>
      <trkpt lat="51.507328" lon="-0.128366"><ele>9.2</ele><time>2026-09-14T16:33:06.200Z</time></trkpt>
      <trkpt lat="51.507324" lon="-0.128364"><ele>9.2</ele><time>2026-09-14T16:33:06.400Z</time></trkpt>
      <trkpt lat="51.507319" lon="-0.128363"><ele>9.3</ele><time>2026-09-14T16:33:06.600Z</time></trkpt>
      <trkpt lat="51.507315" lon="-0.128361"><ele>9.4</ele><time>2026-09-14T16:33:06.800Z</time></trkpt>
      <trkpt lat="51.507311" lon="-0.128359"><ele>9.4</ele><time>2026-09-14T16:33:07.000Z</time></trkpt>
      <trkpt lat="51.507306" lon="-0.128357"><ele>9.5</ele><time>2026-09-14T16:33:07.200Z</time></trkpt>
      <trkpt lat="51.507302" lon="-0.128355"><ele>9.6</ele><time>2026-09-14T16:33:07.400Z</time></trkpt>
      <trkpt lat="51.507298" lon="-0.128353"><ele>9.6</ele><time>2026-09-14T16:33:07.600Z</time></trkpt>
      <trkpt lat="51.507293" lon="-0.128351"><ele>9.7</ele><time>2026-09-14T16:33:07.800Z</time></trkpt>
      <trkpt lat="51.507289" lon="-0.128349"><ele>9.8</ele><time>2026-09-14T16:33:08.000Z</time></trkpt>
      <trkpt lat="51.507285" lon="-0.128347"><ele>9.8</ele><time>2026-09-14T16:33:08.200Z</time></trkpt>
      <trkpt lat="51.507280" lon="-0.128344"><ele>9.9</ele><time>2026-09-14T16:33:08.400Z</time></trkpt>
      <trkpt lat="51.507276" lon="-0.128342"><ele>9.9</ele><time>2026-09-14T16:33:08.600Z</time></trkpt>
      <trkpt lat="51.507272" lon="-0.128339"><ele>10.0</ele><time>2026-09-14T16:33:08.800Z</time></trkpt>
      <trkpt lat="51.507268" lon="-0.128337"><ele>10.1</ele><time>2026-09-14T16:33:09.000Z</time></trkpt>
      <trkpt lat="51.507264" lon="-0.128334"><ele>10.1</ele><time>2026-09-14T16:33:09.200Z</time></trkpt>
      <trkpt lat="51.507259" lon="-0.128331"><ele>10.2</ele><time>2026-09-14T16:33:09.400Z</time></trkpt>
      <trkpt lat="51.507255" lon="-0.128328"><ele>10.2</ele><time>2026-09-14T16:33:09.600Z</time></trkpt>
      <trkpt lat="51.507251" lon="-0.128325"><ele>10.3</ele><time>2026-09-14T16:33:09.800Z</time></trkpt>
      <trkpt lat="51.507247" lon="-0.128322"><ele>10.3</ele><time>2026-09-14T16:33:10.000Z</time></trkpt>
      <trkpt lat="51.507243" lon="-0.128319"><ele>10.4</ele><time>2026-09-14T16:33:10.200Z</time></trkpt>
      <trkpt lat="51.507239" lon="-0.128316"><ele>10.4</ele><time>2026-09-14T16:33:10.400Z</time></trkpt>
      <trkpt lat="51.507235" lon="-0.128313"><ele>10.4</ele><time>2026-09-14T16:33:10.600Z</time></trkpt>
      <trkpt lat="51.507231" lon="-0.128309"><ele>10.5</ele><time>2026-09-14T16:33:10.800Z</time></trkpt>
      <trkpt lat="51.507227" lon="-0.128306"><ele>10.5</ele><time>2026-09-14T16:33:11.000Z</time></trkpt>
      <trkpt lat="51.507223" lon="-0.128302"><ele>10.6</ele><time>2026-09-14T16:33:11.200Z</time></trkpt>
      <trkpt lat="51.507219" lon="-0.128299"><ele>10.6</ele><time>2026-09-14T16:33:11.400Z</time></trkpt>
      <trkpt lat="51.507215" lon="-0.128295"><ele>10.6</ele><time>2026-09-14T16:33:11.600Z</time></trkpt>
      <trkpt lat="51.507211" lon="-0.128291"><ele>10.7</ele><time>2026-09-14T16:33:11.800Z</time></trkpt>
      <trkpt lat="51.507207" lon="-0.128287"><ele>10.7</ele><time>2026-09-14T16:33:12.000Z</time></trkpt>
      <trkpt lat="51.507204" lon="-0.128284"><ele>10.7</ele><time>2026-09-14T16:33:12.200Z</time></trkpt>
      <trkpt lat="51.507200" lon="-0.128280"><ele>10.8</ele><time>2026-09-14T16:33:12.400Z</time></trkpt>
      <trkpt lat="51.507196" lon="-0.128275"><ele>10.8</ele><time>2026-09-14T16:33:12.600Z</time></trkpt>
      <trkpt lat="51.507192" lon="-0.128271"><ele>10.8</ele><time>2026-09-14T16:33:12.800Z</time></trkpt>
      <trkpt lat="51.507189" lon="-0.128267"><ele>10.9</ele><time>2026-09-14T16:33:13.000Z</time></trkpt>
      <trkpt lat="51.507185" lon="-0.128263"><ele>10.9</ele><time>2026-09-14T16:33:13.200Z</time></trkpt>
      <trkpt lat="51.507182" lon="-0.128258"><ele>10.9</ele><time>2026-09-14T16:33:13.400Z</time></trkpt>
      <trkpt lat="51.507178" lon="-0.128254"><ele>10.9</ele><time>2026-09-14T16:33:13.600Z</time></trkpt>
      <trkpt lat="51.507174" lon="-0.128249"><ele>10.9</ele><time>2026-09-14T16:33:13.800Z</time></trkpt>
      <trkpt lat="51.507171" lon="-0.128245"><ele>10.9</ele><time>2026-09-14T16:33:14.000Z</time></trkpt>
      <trkpt lat="51.507167" lon="-0.128240"><ele>11.0</ele><time>2026-09-14T16:33:14.200Z</time></trkpt>
      <trkpt lat="51.507164" lon="-0.128235"><ele>11.0</ele><time>2026-09-14T16:33:14.400Z</time></trkpt>
      <trkpt lat="51.507161" lon="-0.128231"><ele>11.0</ele><time>2026-09-14T16:33:14.600Z</time></trkpt>
      <trkpt lat="51.507157" lon="-0.128226"><ele>11.0</ele><time>2026-09-14T16:33:14.800Z</time></trkpt>
      <trkpt lat="51.507154" lon="-0.128221"><ele>11.0</ele><time>2026-09-14T16:33:15.000Z</time></trkpt>
      <trkpt lat="51.507151" lon="-0.128216"><ele>11.0</ele><time>2026-09-14T16:33:15.200Z</time></trkpt>
      <trkpt lat="51.507148" lon="-0.128211"><ele>11.0</ele><time>2026-09-14T16:33:15.400Z</time></trkpt>
      <trkpt lat="51.507144" lon="-0.128206"><ele>11.0</ele><time>2026-09-14T16:33:15.600Z</time></trkpt>
      <trkpt lat="51.507141" lon="-0.128200"><ele>11.0</ele><time>2026-09-14T16:33:15.800Z</time></trkpt>
      <trkpt lat="51.507138" lon="-0.128195"><ele>11.0</ele><time>2026-09-14T16:33:16.000Z</time></trkpt>
      <trkpt lat="51.507135" lon="-0.128190"><ele>11.0</ele><time>2026-09-14T16:33:16.200Z</time></trkpt>
      <trkpt lat="51.507132" lon="-0.128184"><ele>11.0</ele><time>2026-09-14T16:33:16.400Z</time></trkpt>
      <trkpt lat="51.507129" lon="-0.128179"><ele>11.0</ele><time>2026-09-14T16:33:16.600Z</time></trkpt>
      <trkpt lat="51.507126" lon="-0.128174"><ele>11.0</ele><time>2026-09-14T16:33:16.800Z</time></trkpt>
      <trkpt lat="51.507123" lon="-0.128168"><ele>10.9</ele><time>2026-09-14T16:33:17.000Z</time></trkpt>
      <trkpt lat="51.507120" lon="-0.128162"><ele>10.9</ele><time>2026-09-14T16:33:17.200Z</time></trkpt>
      <trkpt lat="51.507117" lon="-0.128157"><ele>10.9</ele><time>2026-09-14T16:33:17.400Z</time></trkpt>
      <trkpt lat="51.507115" lon="-0.128151"><ele>10.9</ele><time>2026-09-14T16:33:17.600Z</time></trkpt>
      <trkpt lat="51.507112" lon="-0.128145"><ele>10.9</ele><time>2026-09-14T16:33:17.800Z</time></trkpt>
      <trkpt lat="51.507109" lon="-0.128139"><ele>10.9</ele><time>2026-09-14T16:33:18.000Z</time></trkpt>
      <trkpt lat="51.507107" lon="-0.128133"><ele>10.8</ele><time>2026-09-14T16:33:18.200Z</time></trkpt>
      <trkpt lat="51.507104" lon="-0.128127"><ele>10.8</ele><time>2026-09-14T16:33:18.400Z</time></trkpt>
      <trkpt lat="51.507102" lon="-0.128121"><ele>10.8</ele><time>2026-09-14T16:33:18.600Z</time></trkpt>
      <trkpt lat="51.507099" lon="-0.128115"><ele>10.7</ele><time>2026-09-14T16:33:18.800Z</time></trkpt>
      <trkpt lat="51.507097" lon="-0.128109"><ele>10.7</ele><time>2026-09-14T16:33:19.000Z</time></trkpt>
      <trkpt lat="51.507094" lon="-0.128103"><ele>10.7</ele><time>2026-09-14T16:33:19.200Z</time></trkpt>
      <trkpt lat="51.507092" lon="-0.128097"><ele>10.6</ele><time>2026-09-14T16:33:19.400Z</time></trkpt>
      <trkpt lat="51.507090" lon="-0.128091"><ele>10.6</ele><time>2026-09-14T16:33:19.600Z</time></trkpt>
      <trkpt lat="51.507087" lon="-0.128084"><ele>10.6</ele><time>2026-09-14T16:33:19.800Z</time></trkpt>
      <trkpt lat="51.507085" lon="-0.128078"><ele>10.5</ele><time>2026-09-14T16:33:20.000Z</time></trkpt>
      <trkpt lat="51.507083" lon="-0.128072"><ele>10.5</ele><time>2026-09-14T16:33:20.200Z</time></trkpt>
      <trkpt lat="51.507081" lon="-0.128065"><ele>10.4</ele><time>2026-09-14T16:33:20.400Z</time></trkpt>
      <trkpt lat="51.507079" lon="-0.128059"><ele>10.4</ele><time>2026-09-14T16:33:20.600Z</time></trkpt>
      <trkpt lat="51.507077" lon="-0.128052"><ele>10.4</ele><time>2026-09-14T16:33:20.800Z</time></trkpt>
      <trkpt lat="51.507075" lon="-0.128046"><ele>10.3</ele><time>2026-09-14T16:33:21.000Z</time></trkpt>
      <trkpt lat="51.507073" lon="-0.128039"><ele>10.3</ele><time>2026-09-14T16:33:21.200Z</time></trkpt>
      <trkpt lat="51.507071" lon="-0.128033"><ele>10.2</ele><time>2026-09-14T16:33:21.400Z</time></trkpt>
      <trkpt lat="51.507069" lon="-0.128026"><ele>10.2</ele><time>2026-09-14T16:33:21.600Z</time></trkpt>
      <trkpt lat="51.507068" lon="-0.128019"><ele>10.1</ele><time>2026-09-14T16:33:21.800Z</time></trkpt>
      <trkpt lat="51.507066" lon="-0.128013"><ele>10.1</ele><time>2026-09-14T16:33:22.000Z</time></trkpt>
      <trkpt lat="51.507064" lon="-0.128006"><ele>10.0</ele><time>2026-09-14T16:33:22.200Z</time></trkpt>
      <trkpt lat="51.507063" lon="-0.127999"><ele>9.9</ele><time>2026-09-14T16:33:22.400Z</time></trkpt>
      <trkpt lat="51.507061" lon="-0.127992"><ele>9.9</ele><time>2026-09-14T16:33:22.600Z</time></trkpt>
      <trkpt lat="51.507060" lon="-0.127985"><ele>9.8</ele><time>2026-09-14T16:33:22.800Z</time></trkpt>
      <trkpt lat="51.507058" lon="-0.127978"><ele>9.8</ele><time>2026-09-14T16:33:23.000Z</time></trkpt>
      <trkpt lat="51.507057" lon="-0.127971"><ele>9.7</ele><time>2026-09-14T16:33:23.200Z</time></trkpt>
      <trkpt lat="51.507056" lon="-0.127965"><ele>9.6</ele><time>2026-09-14T16:33:23.400Z</time></trkpt>
      <trkpt lat="51.507054" lon="-0.127958"><ele>9.6</ele><time>2026-09-14T16:33:23.600Z</time></trkpt>
      <trkpt lat="51.507053" lon="-0.127951"><ele>9.5</ele><time>2026-09-14T16:33:23.800Z</time></trkpt>
      <trkpt lat="51.507052" lon="-0.127944"><ele>9.4</ele><time>2026-09-14T16:33:24.000Z</time></trkpt>
      <trkpt lat="51.507051" lon="-0.127937"><ele>9.4</ele><time>2026-09-14T16:33:24.200Z</time></trkpt>
      <trkpt lat="51.507050" lon="-0.127929"><ele>9.3</ele><time>2026-09-14T16:33:24.400Z</time></trkpt>
      <trkpt lat="51.507049" lon="-0.127922"><ele>9.2</ele><time>2026-09-14T16:33:24.600Z</time></trkpt>
      <trkpt lat="51.507048" lon="-0.127915"><ele>9.2</ele><time>2026-09-14T16:33:24.800Z</time></trkpt>
      <trkpt lat="51.507047" lon="-0.127908"><ele>9.1</ele><time>2026-09-14T16:33:25.000Z</time></trkpt>
      <trkpt lat="51.507046" lon="-0.127901"><ele>9.0</ele><time>2026-09-14T16:33:25.200Z</time></trkpt>
      <trkpt lat="51.507045" lon="-0.127894"><ele>9.0</ele><time>2026-09-14T16:33:25.400Z</time></trkpt>
      <trkpt lat="51.507045" lon="-0.127887"><ele>8.9</ele><time>2026-09-14T16:33:25.600Z</time></trkpt>
      <trkpt lat="51.507044" lon="-0.127880"><ele>8.8</ele><time>2026-09-14T16:33:25.800Z</time></trkpt>
      <trkpt lat="51.507044" lon="-0.127872"><ele>8.7</ele><time>2026-09-14T16:33:26.000Z</time></trkpt>
      <trkpt lat="51.507043" lon="-0.127865"><ele>8.7</ele><time>2026-09-14T16:33:26.200Z</time></trkpt>
      <trkpt lat="51.507042" lon="-0.127858"><ele>8.6</ele><time>2026-09-14T16:33:26.400Z</time></trkpt>
      <trkpt lat="51.507042" lon="-0.127851"><ele>8.5</ele><time>2026-09-14T16:33:26.600Z</time></trkpt>
      <trkpt lat="51.507042" lon="-0.127843"><ele>8.5</ele><time>2026-09-14T16:33:26.800Z</time></trkpt>
      <trkpt lat="51.507041" lon="-0.127836"><ele>8.4</ele><time>2026-09-14T16:33:27.000Z</time></trkpt>
      <trkpt lat="51.507041" lon="-0.127829"><ele>8.3</ele><time>2026-09-14T16:33:27.200Z</time></trkpt>
      <trkpt lat="51.507041" lon="-0.127822"><ele>8.2</ele><time>2026-09-14T16:33:27.400Z</time></trkpt>
      <trkpt lat="51.507041" lon="-0.127815"><ele>8.2</ele><time>2026-09-14T16:33:27.600Z</time></trkpt>
      <trkpt lat="51.507041" lon="-0.127807"><ele>8.1</ele><time>2026-09-14T16:33:27.800Z</time></trkpt>
      <trkpt lat="51.507041" lon="-0.127800"><ele>8.0</ele><time>2026-09-14T16:33:28.000Z</time></trkpt>
      <trkpt lat="51.507041" lon="-0.127793"><ele>7.9</ele><time>2026-09-14T16:33:28.200Z</time></trkpt>
      <trkpt lat="51.507041" lon="-0.127785"><ele>7.8</ele><time>2026-09-14T16:33:28.400Z</time></trkpt>
      <trkpt lat="51.507041" lon="-0.127778"><ele>7.8</ele><time>2026-09-14T16:33:28.600Z</time></trkpt>
      <trkpt lat="51.507041" lon="-0.127771"><ele>7.7</ele><time>2026-09-14T16:33:28.800Z</time></trkpt>
      <trkpt lat="51.507041" lon="-0.127764"><ele>7.6</ele><time>2026-09-14T16:33:29.000Z</time></trkpt>
      <trkpt lat="51.507042" lon="-0.127757"><ele>7.5</ele><time>2026-09-14T16:33:29.200Z</time></trkpt>
      <trkpt lat="51.507042" lon="-0.127749"><ele>7.5</ele><time>2026-09-14T16:33:29.400Z</time></trkpt>
      <trkpt lat="51.507042" lon="-0.127742"><ele>7.4</ele><time>2026-09-14T16:33:29.600Z</time></trkpt>
      <trkpt lat="51.507043" lon="-0.127735"><ele>7.3</ele><time>2026-09-14T16:33:29.800Z</time></trkpt>
      <trkpt lat="51.507044" lon="-0.127728"><ele>7.3</ele><time>2026-09-14T16:33:30.000Z</time></trkpt>
      <trkpt lat="51.507044" lon="-0.127720"><ele>7.2</ele><time>2026-09-14T16:33:30.200Z</time></trkpt>
      <trkpt lat="51.507045" lon="-0.127713"><ele>7.1</ele><time>2026-09-14T16:33:30.400Z</time></trkpt>
      <trkpt lat="51.507045" lon="-0.127706"><ele>7.0</ele><time>2026-09-14T16:33:30.600Z</time></trkpt>
      <trkpt lat="51.507046" lon="-0.127699"><ele>7.0</ele><time>2026-09-14T16:33:30.800Z</time></trkpt>
      <trkpt lat="51.507047" lon="-0.127692"><ele>6.9</ele><time>2026-09-14T16:33:31.000Z</time></trkpt>
      <trkpt lat="51.507048" lon="-0.127685"><ele>6.8</ele><time>2026-09-14T16:33:31.200Z</time></trkpt>
      <trkpt lat="51.507049" lon="-0.127678"><ele>6.8</ele><time>2026-09-14T16:33:31.400Z</time></trkpt>
      <trkpt lat="51.507050" lon="-0.127671"><ele>6.7</ele><time>2026-09-14T16:33:31.600Z</time></trkpt>
      <trkpt lat="51.507051" lon="-0.127663"><ele>6.6</ele><time>2026-09-14T16:33:31.800Z</time></trkpt>
      <trkpt lat="51.507052" lon="-0.127656"><ele>6.6</ele><time>2026-09-14T16:33:32.000Z</time></trkpt>
      <trkpt lat="51.507053" lon="-0.127649"><ele>6.5</ele><time>2026-09-14T16:33:32.200Z</time></trkpt>
      <trkpt lat="51.507054" lon="-0.127642"><ele>6.4</ele><time>2026-09-14T16:33:32.400Z</time></trkpt>
      <trkpt lat="51.507056" lon="-0.127635"><ele>6.4</ele><time>2026-09-14T16:33:32.600Z</time></trkpt>
      <trkpt lat="51.507057" lon="-0.127629"><ele>6.3</ele><time>2026-09-14T16:33:32.800Z</time></trkpt>
      <trkpt lat="51.507058" lon="-0.127622"><ele>6.2</ele><time>2026-09-14T16:33:33.000Z</time></trkpt>
      <trkpt lat="51.507060" lon="-0.127615"><ele>6.2</ele><time>2026-09-14T16:33:33.200Z</time></trkpt>
      <trkpt lat="51.507061" lon="-0.127608"><ele>6.1</ele><time>2026-09-14T16:33:33.400Z</time></trkpt>
      <trkpt lat="51.507063" lon="-0.127601"><ele>6.1</ele><time>2026-09-14T16:33:33.600Z</time></trkpt>
      <trkpt lat="51.507064" lon="-0.127594"><ele>6.0</ele><time>2026-09-14T16:33:33.800Z</time></trkpt>
      <trkpt lat="51.507066" lon="-0.127587"><ele>5.9</ele><time>2026-09-14T16:33:34.000Z</time></trkpt>
      <trkpt lat="51.507068" lon="-0.127581"><ele>5.9</ele><time>2026-09-14T16:33:34.200Z</time></trkpt>
      <trkpt lat="51.507069" lon="-0.127574"><ele>5.8</ele><time>2026-09-14T16:33:34.400Z</time></trkpt>
      <trkpt lat="51.507071" lon="-0.127567"><ele>5.8</ele><time>2026-09-14T16:33:34.600Z</time></trkpt>
      <trkpt lat="51.507073" lon="-0.127561"><ele>5.7</ele><time>2026-09-14T16:33:34.800Z</time></trkpt>
      <trkpt lat="51.507075" lon="-0.127554"><ele>5.7</ele><time>2026-09-14T16:33:35.000Z</time></trkpt>
      <trkpt lat="51.507077" lon="-0.127548"><ele>5.6</ele><time>2026-09-14T16:33:35.200Z</time></trkpt>
      <trkpt lat="51.507079" lon="-0.127541"><ele>5.6</ele><time>2026-09-14T16:33:35.400Z</time></trkpt>
      <trkpt lat="51.507081" lon="-0.127535"><ele>5.6</ele><time>2026-09-14T16:33:35.600Z</time></trkpt>
      <trkpt lat="51.507083" lon="-0.127528"><ele>5.5</ele><time>2026-09-14T16:33:35.800Z</time></trkpt>
      <trkpt lat="51.507085" lon="-0.127522"><ele>5.5</ele><time>2026-09-14T16:33:36.000Z</time></trkpt>
      <trkpt lat="51.507087" lon="-0.127516"><ele>5.4</ele><time>2026-09-14T16:33:36.200Z</time></trkpt>
      <trkpt lat="51.507090" lon="-0.127509"><ele>5.4</ele><time>2026-09-14T16:33:36.400Z</time></trkpt>
      <trkpt lat="51.507092" lon="-0.127503"><ele>5.4</ele><time>2026-09-14T16:33:36.600Z</time></trkpt>
      <trkpt lat="51.507094" lon="-0.127497"><ele>5.3</ele><time>2026-09-14T16:33:36.800Z</time></trkpt>
      <trkpt lat="51.507097" lon="-0.127491"><ele>5.3</ele><time>2026-09-14T16:33:37.000Z</time></trkpt>
      <trkpt lat="51.507099" lon="-0.127485"><ele>5.3</ele><time>2026-09-14T16:33:37.200Z</time></trkpt>
      <trkpt lat="51.507102" lon="-0.127479"><ele>5.2</ele><time>2026-09-14T16:33:37.400Z</time></trkpt>
      <trkpt lat="51.507104" lon="-0.127473"><ele>5.2</ele><time>2026-09-14T16:33:37.600Z</time></trkpt>
      <trkpt lat="51.507107" lon="-0.127467"><ele>5.2</ele><time>2026-09-14T16:33:37.800Z</time></trkpt>
      <trkpt lat="51.507109" lon="-0.127461"><ele>5.1</ele><time>2026-09-14T16:33:38.000Z</time></trkpt>
      <trkpt lat="51.507112" lon="-0.127455"><ele>5.1</ele><time>2026-09-14T16:33:38.200Z</time></trkpt>
      <trkpt lat="51.507115" lon="-0.127449"><ele>5.1</ele><time>2026-09-14T16:33:38.400Z</time></trkpt>
      <trkpt lat="51.507117" lon="-0.127443"><ele>5.1</ele><time>2026-09-14T16:33:38.600Z</time></trkpt>
      <trkpt lat="51.507120" lon="-0.127438"><ele>5.1</ele><time>2026-09-14T16:33:38.800Z</time></trkpt>
      <trkpt lat="51.507123" lon="-0.127432"><ele>5.1</ele><time>2026-09-14T16:33:39.000Z</time></trkpt>
      <trkpt lat="51.507126" lon="-0.127426"><ele>5.0</ele><time>2026-09-14T16:33:39.200Z</time></trkpt>
      <trkpt lat="51.507129" lon="-0.127421"><ele>5.0</ele><time>2026-09-14T16:33:39.400Z</time></trkpt>
      <trkpt lat="51.507132" lon="-0.127416"><ele>5.0</ele><time>2026-09-14T16:33:39.600Z</time></trkpt>
      <trkpt lat="51.507135" lon="-0.127410"><ele>5.0</ele><time>2026-09-14T16:33:39.800Z</time></trkpt>
      <trkpt lat="51.507138" lon="-0.127405"><ele>5.0</ele><time>2026-09-14T16:33:40.000Z</time></trkpt>
      <trkpt lat="51.507141" lon="-0.127400"><ele>5.0</ele><time>2026-09-14T16:33:40.200Z</time></trkpt>
      <trkpt lat="51.507144" lon="-0.127394"><ele>5.0</ele><time>2026-09-14T16:33:40.400Z</time></trkpt>
      <trkpt lat="51.507148" lon="-0.127389"><ele>5.0</ele><time>2026-09-14T16:33:40.600Z</time></trkpt>
      <trkpt lat="51.507151" lon="-0.127384"><ele>5.0</ele><time>2026-09-14T16:33:40.800Z</time></trkpt>
      <trkpt lat="51.507154" lon="-0.127379"><ele>5.0</ele><time>2026-09-14T16:33:41.000Z</time></trkpt>
      <trkpt lat="51.507157" lon="-0.127374"><ele>5.0</ele><time>2026-09-14T16:33:41.200Z</time></trkpt>
      <trkpt lat="51.507161" lon="-0.127369"><ele>5.0</ele><time>2026-09-14T16:33:41.400Z</time></trkpt>
      <trkpt lat="51.507164" lon="-0.127365"><ele>5.0</ele><time>2026-09-14T16:33:41.600Z</time></trkpt>
      <trkpt lat="51.507167" lon="-0.127360"><ele>5.0</ele><time>2026-09-14T16:33:41.800Z</time></trkpt>
      <trkpt lat="51.507171" lon="-0.127355"><ele>5.1</ele><time>2026-09-14T16:33:42.000Z</time></trkpt>
      <trkpt lat="51.507174" lon="-0.127351"><ele>5.1</ele><time>2026-09-14T16:33:42.200Z</time></trkpt>
      <trkpt lat="51.507178" lon="-0.127346"><ele>5.1</ele><time>2026-09-14T16:33:42.400Z</time></trkpt>
      <trkpt lat="51.507182" lon="-0.127342"><ele>5.1</ele><time>2026-09-14T16:33:42.600Z</time></trkpt>
      <trkpt lat="51.507185" lon="-0.127337"><ele>5.1</ele><time>2026-09-14T16:33:42.800Z</time></trkpt>
      <trkpt lat="51.507189" lon="-0.127333"><ele>5.1</ele><time>2026-09-14T16:33:43.000Z</time></trkpt>
      <trkpt lat="51.507192" lon="-0.127329"><ele>5.2</ele><time>2026-09-14T16:33:43.200Z</time></trkpt>
      <trkpt lat="51.507196" lon="-0.127325"><ele>5.2</ele><time>2026-09-14T16:33:43.400Z</time></trkpt>
      <trkpt lat="51.507200" lon="-0.127320"><ele>5.2</ele><time>2026-09-14T16:33:43.600Z</time></trkpt>
      <trkpt lat="51.507204" lon="-0.127316"><ele>5.3</ele><time>2026-09-14T16:33:43.800Z</time></trkpt>
      <trkpt lat="51.507207" lon="-0.127313"><ele>5.3</ele><time>2026-09-14T16:33:44.000Z</time></trkpt>
      <trkpt lat="51.507211" lon="-0.127309"><ele>5.3</ele><time>2026-09-14T16:33:44.200Z</time></trkpt>
      <trkpt lat="51.507215" lon="-0.127305"><ele>5.4</ele><time>2026-09-14T16:33:44.400Z</time></trkpt>
      <trkpt lat="51.507219" lon="-0.127301"><ele>5.4</ele><time>2026-09-14T16:33:44.600Z</time></trkpt>
      <trkpt lat="51.507223" lon="-0.127298"><ele>5.4</ele><time>2026-09-14T16:33:44.800Z</time></trkpt>
      <trkpt lat="51.507227" lon="-0.127294"><ele>5.5</ele><time>2026-09-14T16:33:45.000Z</time></trkpt>
      <trkpt lat="51.507231" lon="-0.127291"><ele>5.5</ele><time>2026-09-14T16:33:45.200Z</time></trkpt>
      <trkpt lat="51.507235" lon="-0.127287"><ele>5.6</ele><time>2026-09-14T16:33:45.400Z</time></trkpt>
      <trkpt lat="51.507239" lon="-0.127284"><ele>5.6</ele><time>2026-09-14T16:33:45.600Z</time></trkpt>
      <trkpt lat="51.507243" lon="-0.127281"><ele>5.6</ele><time>2026-09-14T16:33:45.800Z</time></trkpt>
      <trkpt lat="51.507247" lon="-0.127278"><ele>5.7</ele><time>2026-09-14T16:33:46.000Z</time></trkpt>
      <trkpt lat="51.507251" lon="-0.127275"><ele>5.7</ele><time>2026-09-14T16:33:46.200Z</time></trkpt>
      <trkpt lat="51.507255" lon="-0.127272"><ele>5.8</ele><time>2026-09-14T16:33:46.400Z</time></trkpt>
      <trkpt lat="51.507259" lon="-0.127269"><ele>5.8</ele><time>2026-09-14T16:33:46.600Z</time></trkpt>
      <trkpt lat="51.507264" lon="-0.127266"><ele>5.9</ele><time>2026-09-14T16:33:46.800Z</time></trkpt>
      <trkpt lat="51.507268" lon="-0.127263"><ele>5.9</ele><time>2026-09-14T16:33:47.000Z</time></trkpt>
      <trkpt lat="51.507272" lon="-0.127261"><ele>6.0</ele><time>2026-09-14T16:33:47.200Z</time></trkpt>
      <trkpt lat="51.507276" lon="-0.127258"><ele>6.1</ele><time>2026-09-14T16:33:47.400Z</time></trkpt>
      <trkpt lat="51.507280" lon="-0.127256"><ele>6.1</ele><time>2026-09-14T16:33:47.600Z</time></trkpt>
      <trkpt lat="51.507285" lon="-0.127253"><ele>6.2</ele><time>2026-09-14T16:33:47.800Z</time></trkpt>
      <trkpt lat="51.507289" lon="-0.127251"><ele>6.2</ele><time>2026-09-14T16:33:48.000Z</time></trkpt>
      <trkpt lat="51.507293" lon="-0.127249"><ele>6.3</ele><time>2026-09-14T16:33:48.200Z</time></trkpt>
      <trkpt lat="51.507298" lon="-0.127247"><ele>6.4</ele><time>2026-09-14T16:33:48.400Z</time></trkpt>
      <trkpt lat="51.507302" lon="-0.127245"><ele>6.4</ele><time>2026-09-14T16:33:48.600Z</time></trkpt>
      <trkpt lat="51.507306" lon="-0.127243"><ele>6.5</ele><time>2026-09-14T16:33:48.800Z</time></trkpt>
      <trkpt lat="51.507311" lon="-0.127241"><ele>6.6</ele><time>2026-09-14T16:33:49.000Z</time></trkpt>
      <trkpt lat="51.507315" lon="-0.127239"><ele>6.6</ele><time>2026-09-14T16:33:49.200Z</time></trkpt>
      <trkpt lat="51.507319" lon="-0.127237"><ele>6.7</ele><time>2026-09-14T16:33:49.400Z</time></trkpt>
      <trkpt lat="51.507324" lon="-0.127236"><ele>6.8</ele><time>2026-09-14T16:33:49.600Z</time></trkpt>
      <trkpt lat="51.507328" lon="-0.127234"><ele>6.8</ele><time>2026-09-14T16:33:49.800Z</time></trkpt>
      <trkpt lat="51.507333" lon="-0.127233"><ele>6.9</ele><time>2026-09-14T16:33:50.000Z</time></trkpt>
      <trkpt lat="51.507337" lon="-0.127232"><ele>7.0</ele><time>2026-09-14T16:33:50.200Z</time></trkpt>
      <trkpt lat="51.507342" lon="-0.127230"><ele>7.0</ele><time>2026-09-14T16:33:50.400Z</time></trkpt>
      <trkpt lat="51.507346" lon="-0.127229"><ele>7.1</ele><time>2026-09-14T16:33:50.600Z</time></trkpt>
      <trkpt lat="51.507350" lon="-0.127228"><ele>7.2</ele><time>2026-09-14T16:33:50.800Z</time></trkpt>
      <trkpt lat="51.507355" lon="-0.127227"><ele>7.3</ele><time>2026-09-14T16:33:51.000Z</time></trkpt>
      <trkpt lat="51.507359" lon="-0.127226"><ele>7.3</ele><time>2026-09-14T16:33:51.200Z</time></trkpt>
      <trkpt lat="51.507364" lon="-0.127226"><ele>7.4</ele><time>2026-09-14T16:33:51.400Z</time></trkpt>
      <trkpt lat="51.507368" lon="-0.127225"><ele>7.5</ele><time>2026-09-14T16:33:51.600Z</time></trkpt>
      <trkpt lat="51.507373" lon="-0.127224"><ele>7.5</ele><time>2026-09-14T16:33:51.800Z</time></trkpt>
      <trkpt lat="51.507377" lon="-0.127224"><ele>7.6</ele><time>2026-09-14T16:33:52.000Z</time></trkpt>
      <trkpt lat="51.507382" lon="-0.127223"><ele>7.7</ele><time>2026-09-14T16:33:52.200Z</time></trkpt>
      <trkpt lat="51.507386" lon="-0.127223"><ele>7.8</ele><time>2026-09-14T16:33:52.400Z</time></trkpt>
      <trkpt lat="51.507391" lon="-0.127223"><ele>7.8</ele><time>2026-09-14T16:33:52.600Z</time></trkpt>
      <trkpt lat="51.507395" lon="-0.127223"><ele>7.9</ele><time>2026-09-14T16:33:52.800Z</time></trkpt>
      <trkpt lat="51.507400" lon="-0.127223"><ele>8.0</ele><time>2026-09-14T16:33:53.000Z</time></trkpt>
      <trkpt lat="51.507405" lon="-0.127223"><ele>8.1</ele><time>2026-09-14T16:33:53.200Z</time></trkpt>
      <trkpt lat="51.507409" lon="-0.127223"><ele>8.2</ele><time>2026-09-14T16:33:53.400Z</time></trkpt>
      <trkpt lat="51.507414" lon="-0.127223"><ele>8.2</ele><time>2026-09-14T16:33:53.600Z</time></trkpt>
      <trkpt lat="51.507418" lon="-0.127223"><ele>8.3</ele><time>2026-09-14T16:33:53.800Z</time></trkpt>
      <trkpt lat="51.507423" lon="-0.127224"><ele>8.4</ele><time>2026-09-14T16:33:54.000Z</time></trkpt>
      <trkpt lat="51.507427" lon="-0.127224"><ele>8.5</ele><time>2026-09-14T16:33:54.200Z</time></trkpt>
      <trkpt lat="51.507432" lon="-0.127225"><ele>8.5</ele><time>2026-09-14T16:33:54.400Z</time></trkpt>
      <trkpt lat="51.507436" lon="-0.127226"><ele>8.6</ele><time>2026-09-14T16:33:54.600Z</time></trkpt>
      <trkpt lat="51.507441" lon="-0.127226"><ele>8.7</ele><time>2026-09-14T16:33:54.800Z</time></trkpt>
      <trkpt lat="51.507445" lon="-0.127227"><ele>8.7</ele><time>2026-09-14T16:33:55.000Z</time></trkpt>
      <trkpt lat="51.507450" lon="-0.127228"><ele>8.8</ele><time>2026-09-14T16:33:55.200Z</time></trkpt>
      <trkpt lat="51.507454" lon="-0.127229"><ele>8.9</ele><time>2026-09-14T16:33:55.400Z</time></trkpt>
      <trkpt lat="51.507458" lon="-0.127230"><ele>9.0</ele><time>2026-09-14T16:33:55.600Z</time></trkpt>
      <trkpt lat="51.507463" lon="-0.127232"><ele>9.0</ele><time>2026-09-14T16:33:55.800Z</time></trkpt>
      <trkpt lat="51.507467" lon="-0.127233"><ele>9.1</ele><time>2026-09-14T16:33:56.000Z</time></trkpt>
      <trkpt lat="51.507472" lon="-0.127234"><ele>9.2</ele><time>2026-09-14T16:33:56.200Z</time></trkpt>
      <trkpt lat="51.507476" lon="-0.127236"><ele>9.2</ele><time>2026-09-14T16:33:56.400Z</time></trkpt>
      <trkpt lat="51.507481" lon="-0.127237"><ele>9.3</ele><time>2026-09-14T16:33:56.600Z</time></trkpt>
      <trkpt lat="51.507485" lon="-0.127239"><ele>9.4</ele><time>2026-09-14T16:33:56.800Z</time></trkpt>
      <trkpt lat="51.507489" lon="-0.127241"><ele>9.4</ele><time>2026-09-14T16:33:57.000Z</time></trkpt>
      <trkpt lat="51.507494" lon="-0.127243"><ele>9.5</ele><time>2026-09-14T16:33:57.200Z</time></trkpt>
      <trkpt lat="51.507498" lon="-0.127245"><ele>9.6</ele><time>2026-09-14T16:33:57.400Z</time></trkpt>
      <trkpt lat="51.507502" lon="-0.127247"><ele>9.6</ele><time>2026-09-14T16:33:57.600Z</time></trkpt>
      <trkpt lat="51.507507" lon="-0.127249"><ele>9.7</ele><time>2026-09-14T16:33:57.800Z</time></trkpt>
      <trkpt lat="51.507511" lon="-0.127251"><ele>9.8</ele><time>2026-09-14T16:33:58.000Z</time></trkpt>
      <trkpt lat="51.507515" lon="-0.127253"><ele>9.8</ele><time>2026-09-14T16:33:58.200Z</time></trkpt>
      <trkpt lat="51.507520" lon="-0.127256"><ele>9.9</ele><time>2026-09-14T16:33:58.400Z</time></trkpt>
      <trkpt lat="51.507524" lon="-0.127258"><ele>9.9</ele><time>2026-09-14T16:33:58.600Z</time></trkpt>
      <trkpt lat="51.507528" lon="-0.127261"><ele>10.0</ele><time>2026-09-14T16:33:58.800Z</time></trkpt>
      <trkpt lat="51.507532" lon="-0.127263"><ele>10.1</ele><time>2026-09-14T16:33:59.000Z</time></trkpt>
      <trkpt lat="51.507536" lon="-0.127266"><ele>10.1</ele><time>2026-09-14T16:33:59.200Z</time></trkpt>
      <trkpt lat="51.507541" lon="-0.127269"><ele>10.2</ele><time>2026-09-14T16:33:59.400Z</time></trkpt>
      <trkpt lat="51.507545" lon="-0.127272"><ele>10.2</ele><time>2026-09-14T16:33:59.600Z</time></trkpt>
      <trkpt lat="51.507549" lon="-0.127275"><ele>10.3</ele><time>2026-09-14T16:33:59.800Z</time></trkpt>
      <trkpt lat="51.507553" lon="-0.127278"><ele>10.3</ele><time>2026-09-14T16:34:00.000Z</time></trkpt>
      <trkpt lat="51.507557" lon="-0.127281"><ele>10.4</ele><time>2026-09-14T16:34:00.200Z</time></trkpt>
      <trkpt lat="51.507561" lon="-0.127284"><ele>10.4</ele><time>2026-09-14T16:34:00.400Z</time></trkpt>
      <trkpt lat="51.507565" lon="-0.127287"><ele>10.4</ele><time>2026-09-14T16:34:00.600Z</time></trkpt>
      <trkpt lat="51.507569" lon="-0.127291"><ele>10.5</ele><time>2026-09-14T16:34:00.800Z</time></trkpt>
      <trkpt lat="51.507573" lon="-0.127294"><ele>10.5</ele><time>2026-09-14T16:34:01.000Z</time></trkpt>
      <trkpt lat="51.507577" lon="-0.127298"><ele>10.6</ele><time>2026-09-14T16:34:01.200Z</time></trkpt>
      <trkpt lat="51.507581" lon="-0.127301"><ele>10.6</ele><time>2026-09-14T16:34:01.400Z</time></trkpt>
      <trkpt lat="51.507585" lon="-0.127305"><ele>10.6</ele><time>2026-09-14T16:34:01.600Z</time></trkpt>
      <trkpt lat="51.507589" lon="-0.127309"><ele>10.7</ele><time>2026-09-14T16:34:01.800Z</time></trkpt>
      <trkpt lat="51.507593" lon="-0.127313"><ele>10.7</ele><time>2026-09-14T16:34:02.000Z</time></trkpt>
      <trkpt lat="51.507596" lon="-0.127316"><ele>10.7</ele><time>2026-09-14T16:34:02.200Z</time></trkpt>
      <trkpt lat="51.507600" lon="-0.127320"><ele>10.8</ele><time>2026-09-14T16:34:02.400Z</time></trkpt>
      <trkpt lat="51.507604" lon="-0.127325"><ele>10.8</ele><time>2026-09-14T16:34:02.600Z</time></trkpt>
      <trkpt lat="51.507608" lon="-0.127329"><ele>10.8</ele><time>2026-09-14T16:34:02.800Z</time></trkpt>
      <trkpt lat="51.507611" lon="-0.127333"><ele>10.9</ele><time>2026-09-14T16:34:03.000Z</time></trkpt>
      <trkpt lat="51.507615" lon="-0.127337"><ele>10.9</ele><time>2026-09-14T16:34:03.200Z</time></trkpt>
      <trkpt lat="51.507618" lon="-0.127342"><ele>10.9</ele><time>2026-09-14T16:34:03.400Z</time></trkpt>
      <trkpt lat="51.507622" lon="-0.127346"><ele>10.9</ele><time>2026-09-14T16:34:03.600Z</time></trkpt>
      <trkpt lat="51.507626" lon="-0.127351"><ele>10.9</ele><time>2026-09-14T16:34:03.800Z</time></trkpt>
      <trkpt lat="51.507629" lon="-0.127355"><ele>10.9</ele><time>2026-09-14T16:34:04.000Z</time></trkpt>
      <trkpt lat="51.507633" lon="-0.127360"><ele>11.0</ele><time>2026-09-14T16:34:04.200Z</time></trkpt>
      <trkpt lat="51.507636" lon="-0.127365"><ele>11.0</ele><time>2026-09-14T16:34:04.400Z</time></trkpt>
      <trkpt lat="51.507639" lon="-0.127369"><ele>11.0</ele><time>2026-09-14T16:34:04.600Z</time></trkpt>
      <trkpt lat="51.507643" lon="-0.127374"><ele>11.0</ele><time>2026-09-14T16:34:04.800Z</time></trkpt>
      <trkpt lat="51.507646" lon="-0.127379"><ele>11.0</ele><time>2026-09-14T16:34:05.000Z</time></trkpt>
      <trkpt lat="51.507649" lon="-0.127384"><ele>11.0</ele><time>2026-09-14T16:34:05.200Z</time></trkpt>
      <trkpt lat="51.507652" lon="-0.127389"><ele>11.0</ele><time>2026-09-14T16:34:05.400Z</time></trkpt>
      <trkpt lat="51.507656" lon="-0.127394"><ele>11.0</ele><time>2026-09-14T16:34:05.600Z</time></trkpt>
      <trkpt lat="51.507659" lon="-0.127400"><ele>11.0</ele><time>2026-09-14T16:34:05.800Z</time></trkpt>
      <trkpt lat="51.507662" lon="-0.127405"><ele>11.0</ele><time>2026-09-14T16:34:06.000Z</time></trkpt>
      <trkpt lat="51.507665" lon="-0.127410"><ele>11.0</ele><time>2026-09-14T16:34:06.200Z</time></trkpt>
      <trkpt lat="51.507668" lon="-0.127416"><ele>11.0</ele><time>2026-09-14T16:34:06.400Z</time></trkpt>
      <trkpt lat="51.507671" lon="-0.127421"><ele>11.0</ele><time>2026-09-14T16:34:06.600Z</time></trkpt>
      <trkpt lat="51.507674" lon="-0.127426"><ele>11.0</ele><time>2026-09-14T16:34:06.800Z</time></trkpt>
      <trkpt lat="51.507677" lon="-0.127432"><ele>10.9</ele><time>2026-09-14T16:34:07.000Z</time></trkpt>
      <trkpt lat="51.507680" lon="-0.127438"><ele>10.9</ele><time>2026-09-14T16:34:07.200Z</time></trkpt>
      <trkpt lat="51.507683" lon="-0.127443"><ele>10.9</ele><time>2026-09-14T16:34:07.400Z</time></trkpt>
      <trkpt lat="51.507685" lon="-0.127449"><ele>10.9</ele><time>2026-09-14T16:34:07.600Z</time></trkpt>
      <trkpt lat="51.507688" lon="-0.127455"><ele>10.9</ele><time>2026-09-14T16:34:07.800Z</time></trkpt>
      <trkpt lat="51.507691" lon="-0.127461"><ele>10.9</ele><time>2026-09-14T16:34:08.000Z</time></trkpt>
      <trkpt lat="51.507693" lon="-0.127467"><ele>10.8</ele><time>2026-09-14T16:34:08.200Z</time></trkpt>
      <trkpt lat="51.507696" lon="-0.127473"><ele>10.8</ele><time>2026-09-14T16:34:08.400Z</time></trkpt>
      <trkpt lat="51.507698" lon="-0.127479"><ele>10.8</ele><time>2026-09-14T16:34:08.600Z</time></trkpt>
      <trkpt lat="51.507701" lon="-0.127485"><ele>10.7</ele><time>2026-09-14T16:34:08.800Z</time></trkpt>
      <trkpt lat="51.507703" lon="-0.127491"><ele>10.7</ele><time>2026-09-14T16:34:09.000Z</time></trkpt>
      <trkpt lat="51.507706" lon="-0.127497"><ele>10.7</ele><time>2026-09-14T16:34:09.200Z</time></trkpt>
      <trkpt lat="51.507708" lon="-0.127503"><ele>10.6</ele><time>2026-09-14T16:34:09.400Z</time></trkpt>
      <trkpt lat="51.507710" lon="-0.127509"><ele>10.6</ele><time>2026-09-14T16:34:09.600Z</time></trkpt>
      <trkpt lat="51.507713" lon="-0.127516"><ele>10.6</ele><time>2026-09-14T16:34:09.800Z</time></trkpt>
      <trkpt lat="51.507715" lon="-0.127522"><ele>10.5</ele><time>2026-09-14T16:34:10.000Z</time></trkpt>
      <trkpt lat="51.507717" lon="-0.127528"><ele>10.5</ele><time>2026-09-14T16:34:10.200Z</time></trkpt>
      <trkpt lat="51.507719" lon="-0.127535"><ele>10.4</ele><time>2026-09-14T16:34:10.400Z</time></trkpt>
      <trkpt lat="51.507721" lon="-0.127541"><ele>10.4</ele><time>2026-09-14T16:34:10.600Z</time></trkpt>
      <trkpt lat="51.507723" lon="-0.127548"><ele>10.4</ele><time>2026-09-14T16:34:10.800Z</time></trkpt>
      <trkpt lat="51.507725" lon="-0.127554"><ele>10.3</ele><time>2026-09-14T16:34:11.000Z</time></trkpt>
      <trkpt lat="51.507727" lon="-0.127561"><ele>10.3</ele><time>2026-09-14T16:34:11.200Z</time></trkpt>
      <trkpt lat="51.507729" lon="-0.127567"><ele>10.2</ele><time>2026-09-14T16:34:11.400Z</time></trkpt>
      <trkpt lat="51.507731" lon="-0.127574"><ele>10.2</ele><time>2026-09-14T16:34:11.600Z</time></trkpt>
      <trkpt lat="51.507732" lon="-0.127581"><ele>10.1</ele><time>2026-09-14T16:34:11.800Z</time></trkpt>
      <trkpt lat="51.507734" lon="-0.127587"><ele>10.1</ele><time>2026-09-14T16:34:12.000Z</time></trkpt>
      <trkpt lat="51.507736" lon="-0.127594"><ele>10.0</ele><time>2026-09-14T16:34:12.200Z</time></trkpt>
      <trkpt lat="51.507737" lon="-0.127601"><ele>9.9</ele><time>2026-09-14T16:34:12.400Z</time></trkpt>
      <trkpt lat="51.507739" lon="-0.127608"><ele>9.9</ele><time>2026-09-14T16:34:12.600Z</time></trkpt>
      <trkpt lat="51.507740" lon="-0.127615"><ele>9.8</ele><time>2026-09-14T16:34:12.800Z</time></trkpt>
    </trkseg>
  </trk>
</gpx>
